ONEWEB-0647             
1 56079U 23043AK  24054.58456547 -.00000042  00000+0 -14657-3 0  9991
2 56079  87.8946  67.3345 0002279  90.8465 269.2927 13.15548736 45370
ONEWEB-0651             
1 56080U 23043AL  24054.57980192  .00000052  00000+0  10337-3 0  9990
2 56080  87.8949  67.3087 0002237  99.5044 260.6339 13.15549365 46575
ONEWEB-0718             
1 56081U 23043AM  24054.57503938  .00000075  00000+0  16547-3 0  9994
2 56081  87.8948  67.2969 0001255  91.8812 268.2462 13.15546485 45389
GSLV R/B                
1 56082U 23043AN  24054.42402368  .00064559  00000+0  71208-3 0  9996
2 56082  87.4078  22.8325 0018862 141.3699 218.8922 15.62642118 51685
ONEWEB-0561             
1 56710U 23068A   24054.58184544  .00000047  00000+0  68602-4 0  9998
2 56710  88.2854  80.9210 0002637  79.9057 280.2381 13.34327693 37972
ONEWEB-0668             
1 56711U 23068B   24054.58334491 -.00044812  00000+0 -11779+0 0  9995
2 56711  87.9143  36.8104 0001345  96.6175 192.0693 13.16617189 41337
ONEWEB-0676             
1 56712U 23068C   24054.49710011  .00000050  00000+0  97912-4 0  9994
2 56712  87.9067  36.8881 0002407  88.5377 271.6029 13.16598089 40556
ONEWEB-0677             
1 56713U 23068D   24054.60551880 -.00000010  00000+0 -45588-4 0  9995
2 56713  88.3190  79.2323 0002497 102.3689 257.7732 13.34776547 38168
